NORAD_CAT_ID,OBJECT_NAME,OBJECT_TYPE,EPOCH,MEAN_MOTION,ECCENTRICITY,INCLINATION,RA_OF_ASC_NODE,ARG_OF_PERICENTER,MEAN_ANOMALY,BSTAR,MEAN_MOTION_DOT,MEAN_MOTION_DDOT,TLE_LINE0,TLE_LINE1,TLE_LINE2,SEMIMAJOR_AXIS,PERIOD,APOGEE,PERIGEE,DECAYED
55282.0,STARLINK-5330,PAYLOAD,2024-04-11 03:25:01,14.98339973,0.0002863,70.0001,3.0754,269.0379,91.0452,0.00020726,2.381e-05,0.0,0 STARLINK-5330,1 55282U 23010P   24102.14237978  .00002381  00000-0  20726-3 0  9992,2 55282  70.0001   3.0754 0002863 269.0379  91.0452 14.98339973 68298,6950.162,96.106,574.017,570.037,0.0
55282.0,STARLINK-5330,PAYLOAD,2024-04-11 21:02:30,14.98330962,0.0002829,70.0001,1.2238,268.0856,91.9979,0.00021146,2.431e-05,0.0,0 STARLINK-5330,1 55282U 23010P   24102.87674521  .00002431  00000-0  21146-3 0  9994,2 55282  70.0001   1.2238 0002829 268.0856  91.9979 14.98330962 68108,6950.19,96.107,574.021,570.089,0.0
55282.0,STARLINK-5330,PAYLOAD,2024-04-12 03:27:02,14.98330689,0.0002739,70.0003,0.5507,266.3291,93.7554,0.00027585,3.2e-05,0.0,0 STARLINK-5330,1 55282U 23010P   24103.14378456  .00003200  00000-0  27585-3 0  9991,2 55282  70.0003   0.5507 0002739 266.3291  93.7554 14.98330689 68447,6950.191,96.107,573.959,570.152,0.0
55282.0,STARLINK-5330,PAYLOAD,2024-04-12 22:40:39,14.98336893,0.0002768,70.0008,358.5323,267.1686,92.9156,6.558e-05,6.9e-06,0.0,0 STARLINK-5330,1 55282U 23010P   24103.94490138  .00000690  00000-0  65580-4 0  9999,2 55282  70.0008 358.5323 0002768 267.1686  92.9156 14.98336893 68568,6950.172,96.107,573.96,570.113,0.0
55282.0,STARLINK-5330,PAYLOAD,2024-04-13 01:52:55,14.98336527,0.0002744,70.0008,358.1956,266.7248,93.3597,4.8462e-05,4.85e-06,0.0,0 STARLINK-5330,1 55282U 23010P   24104.07842106  .00000485  00000-0  48462-4 0  9992,2 55282  70.0008 358.1956 0002744 266.7248  93.3597 14.98336527 68286,6950.173,96.107,573.945,570.131,0.0
55282.0,STARLINK-5330,PAYLOAD,2024-04-13 21:06:32,14.98331778,0.0002656,70.0008,356.1764,259.3406,100.7454,4.5887e-05,4.55e-06,0.0,0 STARLINK-5330,1 55282U 23010P   24104.87954179  .00000455  00000-0  45887-4 0  9999,2 55282  70.0008 356.1764 0002656 259.3406 100.7454 14.98331778 68702,6950.187,96.107,573.898,570.206,0.0
55282.0,STARLINK-5330,PAYLOAD,2024-04-14 01:54:56,14.98330668,0.0002693,70.0007,355.6712,260.5857,99.4998,2.4515e-05,2e-06,0.0,0 STARLINK-5330,1 55282U 23010P   24105.07982267  .00000200  00000-0  24515-4 0  9994,2 55282  70.0007 355.6712 0002693 260.5857  99.4998 14.98330668 68437,6950.191,96.107,573.928,570.184,0.0
55282.0,STARLINK-5330,PAYLOAD,2024-04-14 21:08:33,14.98347181,0.0002749,70.0009,353.6514,257.9002,102.1849,-0.00016932,-2.114e-05,0.0,0 STARLINK-5330,1 55282U 23010P   24105.88093823 -.00002114  00000-0 -16932-3 0  9995,2 55282  70.0009 353.6514 0002749 257.9002 102.1849 14.98347181 68852,6950.14,96.106,573.915,570.094,0.0
55282.0,STARLINK-5330,PAYLOAD,2024-04-15 01:56:57,14.98334978,0.0002733,70.0004,353.1452,268.4398,91.6448,0.00013781,1.552e-05,0.0,0 STARLINK-5330,1 55282U 23010P   24106.08121801  .00001552  00000-0  13781-3 0  9998,2 55282  70.0004 353.1452 0002733 268.4398  91.6448 14.98334978 68588,6950.177,96.107,573.942,570.143,0.0
55282.0,STARLINK-5330,PAYLOAD,2024-04-15 21:10:34,14.98326373,0.0002844,70.0001,351.1245,265.2421,94.8413,0.0002729,3.164e-05,0.0,0 STARLINK-5330,1 55282U 23010P   24106.88233981  .00003164  00000-0  27290-3 0  9990,2 55282  70.0001 351.1245 0002844 265.2421  94.8413 14.98326373 68709,6950.204,96.107,574.046,570.092,0.0
55282.0,STARLINK-5330,PAYLOAD,2024-04-16 09:59:38,14.9833907,0.0002694,70.0005,349.7782,272.3782,87.7068,0.0001402,1.581e-05,0.0,0 STARLINK-5330,1 55282U 23010P   24107.41641522  .00001581  00000-0  14020-3 0  9992,2 55282  70.0005 349.7782 0002694 272.3782  87.7068 14.98339070 68787,6950.165,96.106,573.902,570.157,0.0
55282.0,STARLINK-5330,PAYLOAD,2024-04-16 18:00:18,14.98324762,0.0002576,70.0007,348.9364,270.0784,90.0079,0.00050964,5.992e-05,0.0,0 STARLINK-5330,1 55282U 23010P   24107.75021533  .00005992  00000-0  50964-3 0  9990,2 55282  70.0007 348.9364 0002576 270.0784  90.0079 14.98324762 69133,6950.209,96.107,573.864,570.284,0.0
55282.0,STARLINK-5330,PAYLOAD,2024-04-17 02:01:00,14.98303799,0.0002118,70.0021,348.0948,275.8542,84.2375,0.0023919,0.00028543,0.0,0 STARLINK-5330,1 55282U 23010P   24108.08403852  .00028543  00000-0  23919-2 0  9991,2 55282  70.0021 348.0948 0002118 275.8542  84.2375 14.98303799 68887,6950.274,96.109,573.611,570.667,0.0
55282.0,STARLINK-5330,PAYLOAD,2024-04-17 19:38:27,14.98324625,0.00028,70.002,346.2439,273.9798,86.1041,-0.00019194,-2.382e-05,0.0,0 STARLINK-5330,1 55282U 23010P   24108.81837806 -.00002382  00000-0 -19194-3 0  9998,2 55282  70.0020 346.2439 0002800 273.9798  86.1041 14.98324625 68995,6950.21,96.107,574.021,570.128,0.0
55282.0,STARLINK-5330,PAYLOAD,2024-04-17 21:14:36,14.98321126,0.0002893,70.0016,346.0759,269.8781,90.2046,-0.00026882,-3.298e-05,0.0,0 STARLINK-5330,1 55282U 23010P   24108.88513918 -.00003298  00000-0 -26882-3 0  9999,2 55282  70.0016 346.0759 0002893 269.8781  90.2046 14.98321126 69301,6950.22,96.108,574.096,570.075,0.0
55282.0,STARLINK-5330,PAYLOAD,2024-04-17 22:50:44,14.98319308,0.0003041,70.0011,345.9081,270.8849,89.1962,-0.00022738,-2.804e-05,0.0,0 STARLINK-5330,1 55282U 23010P   24108.95190289 -.00002804  00000-0 -22738-3 0  9997,2 55282  70.0011 345.9081 0003041 270.8849  89.1962 14.98319308 69016,6950.226,96.108,574.205,569.977,0.0
55282.0,STARLINK-5330,PAYLOAD,2024-04-18 21:16:37,14.98334355,0.0003233,70.0011,343.5488,280.4353,79.6442,0.00016918,1.926e-05,0.0,0 STARLINK-5330,1 55282U 23010P   24109.88654031  .00001926  00000-0  16918-3 0  9995,2 55282  70.0011 343.5488 0003233 280.4353  79.6442 14.98334355 69152,6950.179,96.107,574.291,569.797,0.0
55282.0,STARLINK-5330,PAYLOAD,2024-04-18 22:52:45,14.98339393,0.0003184,70.0009,343.3802,280.4729,79.6071,0.00032328,3.767e-05,0.0,0 STARLINK-5330,1 55282U 23010P   24109.95329870  .00003767  00000-0  32328-3 0  9991,2 55282  70.0009 343.3802 0003184 280.4729  79.6071 14.98339393 69468,6950.164,96.106,574.242,569.816,0.0
55282.0,STARLINK-5330,PAYLOAD,2024-04-19 02:05:01,14.98343637,0.0003084,70.0016,343.0462,266.9927,93.0879,0.00082131,9.724e-05,0.0,0 STARLINK-5330,1 55282U 23010P   24110.08681835  .00009724  00000-0  82131-3 0  9995,2 55282  70.0016 343.0462 0003084 266.9927  93.0879 14.98343637 69184,6950.151,96.106,574.159,569.872,0.0
55282.0,STARLINK-5330,PAYLOAD,2024-04-19 21:18:37,14.98352972,0.0002794,70.0022,341.0255,267.6414,92.4425,0.0008191,9.7e-05,0.0,0 STARLINK-5330,1 55282U 23010P   24110.88793509  .00009700  00000-0  81910-3 0  9993,2 55282  70.0022 341.0255 0002794 267.6414  92.4425 14.98352972 69301,6950.122,96.106,573.929,570.045,0.0
55282.0,STARLINK-5330,PAYLOAD,2024-04-20 00:30:53,14.98364677,0.0002702,70.0023,340.6891,263.1692,96.9159,0.0011473,0.00013635,0.0,0 STARLINK-5330,1 55282U 23010P   24111.02145014  .00013635  00000-0  11473-2 0  9990,2 55282  70.0023 340.6891 0002702 263.1692  96.9159 14.98364677 69321,6950.086,96.105,573.829,570.073,0.0
55282.0,STARLINK-5330,PAYLOAD,2024-04-20 14:56:05,14.98344439,0.0002083,70.0052,339.1771,211.3171,148.7865,0.00033336,3.888e-05,0.0,0 STARLINK-5330,1 55282U 23010P   24111.62229001  .00003888  00000-0  33336-3 0  9997,2 55282  70.0052 339.1771 0002083 211.3171 148.7865 14.98344439 69719,6950.148,96.106,573.461,570.566,0.0
55282.0,STARLINK-5330,PAYLOAD,2024-04-20 19:44:30,14.98335884,0.0002616,70.0031,338.6714,254.1511,105.936,-2.6021e-05,-4.03e-06,0.0,0 STARLINK-5330,1 55282U 23010P   24111.82257453 -.00000403  00000-0 -26021-4 0  9997,2 55282  70.0031 338.6714 0002616 254.1511 105.9360 14.98335884 69441,6950.175,96.107,573.858,570.222,0.0
55282.0,STARLINK-5330,PAYLOAD,2024-04-20 21:20:38,14.98334122,0.0002724,70.0025,338.5016,253.2606,106.8254,-7.5078e-05,-9.89e-06,0.0,0 STARLINK-5330,1 55282U 23010P   24111.88933285 -.00000989  00000-0 -75078-4 0  9992,2 55282  70.0025 338.5016 0002724 253.2606 106.8254 14.98334122 69753,6950.18,96.107,573.938,570.152,0.0
55282.0,STARLINK-5330,PAYLOAD,2024-04-21 14:58:07,14.98330184,0.0003009,70.0003,336.6472,263.3772,96.7045,-0.00013848,-1.745e-05,0.0,0 STARLINK-5330,1 55282U 23010P   24112.62369666 -.00001745  00000-0 -13848-3 0  9998,2 55282  70.0003 336.6472 0003009 263.3772  96.7045 14.98330184 69868,6950.192,96.107,574.149,569.966,0.0
55282.0,STARLINK-5330,PAYLOAD,2024-04-21 21:22:39,14.98333111,0.0002873,69.9993,335.9739,259.7729,100.3106,-6.7365e-05,-8.97e-06,0.0,0 STARLINK-5330,1 55282U 23010P   24112.89073899 -.00000897  00000-0 -67365-4 0  9998,2 55282  69.9993 335.9739 0002873 259.7729 100.3106 14.98333111 69605,6950.183,96.107,574.045,570.051,0.0
55282.0,STARLINK-5330,PAYLOAD,2024-04-22 00:34:55,14.98338498,0.0002864,69.9992,335.6371,260.6968,99.3867,-2.2915e-06,-1.2e-06,0.0,0 STARLINK-5330,1 55282U 23010P   24113.02425354 -.00000120  00000-0 -22915-5 0  9993,2 55282  69.9992 335.6371 0002864 260.6968  99.3867 14.98338498 69625,6950.167,96.106,574.022,570.041,0.0
55282.0,STARLINK-5330,PAYLOAD,2024-04-22 19:48:33,14.98322086,0.0002823,69.9996,333.6184,258.5975,101.4867,0.00010904,1.208e-05,0.0,0 STARLINK-5330,1 55282U 23010P   24113.82538209  .00001208  00000-0  10904-3 0  9994,2 55282  69.9996 333.6184 0002823 258.5975 101.4867 14.98322086 69742,6950.217,96.108,574.044,570.12,0.0
55282.0,STARLINK-5330,PAYLOAD,2024-04-22 21:24:41,14.98322381,0.0002788,69.9997,333.4499,258.1266,101.958,9.2884e-05,1.015e-05,0.0,0 STARLINK-5330,1 55282U 23010P   24113.89214258  .00001015  00000-0  92884-4 0  9990,2 55282  69.9997 333.4499 0002788 258.1266 101.9580 14.98322381 70050,6950.216,96.107,574.019,570.144,0.0
55282.0,STARLINK-5330,PAYLOAD,2024-04-23 15:02:09,14.98346074,0.0002676,69.9995,331.5982,267.5726,92.5127,-0.00017477,-2.178e-05,0.0,0 STARLINK-5330,1 55282U 23010P   24114.62649764 -.00002178  00000-0 -17477-3 0  9993,2 55282  69.9995 331.5982 0002676 267.5726  92.5127 14.98346074 70164,6950.143,96.106,573.868,570.148,0.0
